
[{"ORDINAL":"2","COMMENT":"GENERATED VIA SPACETRACK.ORG API","ORIGINATOR":"JSPOC","NORAD_CAT_ID":"41024","OBJECT_NAME":"TIANHUI 1-03 DEB","OBJECT_TYPE":"DEBRIS","CLASSIFICATION_TYPE":"U","INTLDES":"15061C","EPOCH":"2016-03-23 01:06:22","EPOCH_MICROSECONDS":"556160","MEAN_MOTION":"14.68607556","ECCENTRICITY":"0.0238161","INCLINATION":"97.3739","RA_OF_ASC_NODE":"190.9319","ARG_OF_PERICENTER":"49.513","MEAN_ANOMALY":"312.6259","EPHEMERIS_TYPE":"0","ELEMENT_SET_NO":"999","REV_AT_EPOCH":"2120","BSTAR":"0.00046475","MEAN_MOTION_DOT":"4.119e-05","MEAN_MOTION_DDOT":"0","FILE":"2010565","TLE_LINE0":"0 TIANHUI 1-03 DEB","TLE_LINE1":"1 41024U 15061C   16083.04609440  .00004119  00000-0  46475-3 0  9993","TLE_LINE2":"2 41024  97.3739 190.9319 0238161  49.5130 312.6259 14.68607556 21207","OBJECT_ID":"2015-061C","OBJECT_NUMBER":"41024","SEMIMAJOR_AXIS":"7043.653","PERIOD":"98.052","APOGEE":"833.271","PERIGEE":"497.766"},{"ORDINAL":"2","COMMENT":"GENERATED VIA SPACETRACK.ORG API","ORIGINATOR":"JSPOC","NORAD_CAT_ID":"41023","OBJECT_NAME":"TIANHUI 1-03 DEB","OBJECT_TYPE":"DEBRIS","CLASSIFICATION_TYPE":"U","INTLDES":"15061B","EPOCH":"2016-03-23 01:34:02","EPOCH_MICROSECONDS":"801280","MEAN_MOTION":"14.74543632","ECCENTRICITY":"0.0211488","INCLINATION":"97.3381","RA_OF_ASC_NODE":"191.5136","ARG_OF_PERICENTER":"40.0298","MEAN_ANOMALY":"321.6144","EPHEMERIS_TYPE":"0","ELEMENT_SET_NO":"999","REV_AT_EPOCH":"2135","BSTAR":"0.00048328","MEAN_MOTION_DOT":"4.571e-05","MEAN_MOTION_DDOT":"0","FILE":"2010624","TLE_LINE0":"0 TIANHUI 1-03 DEB","TLE_LINE1":"1 41023U 15061B   16083.06531020  .00004571  00000-0  48328-3 0  9993","TLE_LINE2":"2 41023  97.3381 191.5136 0211488  40.0298 321.6144 14.74543632 21357","OBJECT_ID":"2015-061B","OBJECT_NUMBER":"41023","SEMIMAJOR_AXIS":"7024.737","PERIOD":"97.657","APOGEE":"795.167","PERIGEE":"498.037"},{"ORDINAL":"1","COMMENT":"GENERATED VIA SPACETRACK.ORG API","ORIGINATOR":"JSPOC","NORAD_CAT_ID":"41193","OBJECT_NAME":"BREEZE-M DEB (TANK)","OBJECT_TYPE":"DEBRIS","CLASSIFICATION_TYPE":"U","INTLDES":"15082C","EPOCH":"2016-03-23 02:32:51","EPOCH_MICROSECONDS":"820512","MEAN_MOTION":"5.11083388","ECCENTRICITY":"0.5287736","INCLINATION":"49.5403","RA_OF_ASC_NODE":"358.2952","ARG_OF_PERICENTER":"49.5675","MEAN_ANOMALY":"345.7397","EPHEMERIS_TYPE":"0","ELEMENT_SET_NO":"999","REV_AT_EPOCH":"455","BSTAR":"0.0003294","MEAN_MOTION_DOT":"9.03e-06","MEAN_MOTION_DDOT":"0","FILE":"2010650","TLE_LINE0":"0 BREEZE-M DEB (TANK)","TLE_LINE1":"1 41193U 15082C   16083.10615533  .00000903  00000-0  32940-3 0  9999","TLE_LINE2":"2 41193  49.5403 358.2952 5287736  49.5675 345.7397  5.11083388  4552","OBJECT_ID":"2015-082C","OBJECT_NUMBER":"41193","SEMIMAJOR_AXIS":"14236.634","PERIOD":"281.754","APOGEE":"15386.455","PERIGEE":"330.542"},{"ORDINAL":"2","COMMENT":"GENERATED VIA SPACETRACK.ORG API","ORIGINATOR":"JSPOC","NORAD_CAT_ID":"41040","OBJECT_NAME":"YAOGAN 28 DEB","OBJECT_TYPE":"DEBRIS","CLASSIFICATION_TYPE":"U","INTLDES":"15064C","EPOCH":"2016-03-23 03:34:54","EPOCH_MICROSECONDS":"916608","MEAN_MOTION":"15.34108618","ECCENTRICITY":"0.0019072","INCLINATION":"97.257","RA_OF_ASC_NODE":"214.0074","ARG_OF_PERICENTER":"133.7153","MEAN_ANOMALY":"226.5292","EPHEMERIS_TYPE":"0","ELEMENT_SET_NO":"999","REV_AT_EPOCH":"1962","BSTAR":"0.00016743","MEAN_MOTION_DOT":"5.478e-05","MEAN_MOTION_DDOT":"0","FILE":"2010600","TLE_LINE0":"0 YAOGAN 28 DEB","TLE_LINE1":"1 41040U 15064C   16083.14924672  .00005478  00000-0  16743-3 0  9996","TLE_LINE2":"2 41040  97.2570 214.0074 0019072 133.7153 226.5292 15.34108618 19624","OBJECT_ID":"2015-064C","OBJECT_NUMBER":"41040","SEMIMAJOR_AXIS":"6841.706","PERIOD":"93.865","APOGEE":"476.619","PERIGEE":"450.522"},{"ORDINAL":"1","COMMENT":"GENERATED VIA SPACETRACK.ORG API","ORIGINATOR":"JSPOC","NORAD_CAT_ID":"41390","OBJECT_NAME":"BREEZE-M DEB (TANK)","OBJECT_TYPE":"DEBRIS","CLASSIFICATION_TYPE":"U","INTLDES":"16017C","EPOCH":"2016-03-23 04:03:30","EPOCH_MICROSECONDS":"385152","MEAN_MOTION":"3.82571735","ECCENTRICITY":"0.5903372","INCLINATION":"51.587","RA_OF_ASC_NODE":"320.2035","ARG_OF_PERICENTER":"102.357","MEAN_ANOMALY":"326.0355","EPHEMERIS_TYPE":"0","ELEMENT_SET_NO":"999","REV_AT_EPOCH":"36","BSTAR":"0","MEAN_MOTION_DOT":"-6e-07","MEAN_MOTION_DDOT":"0","FILE":"2010684","TLE_LINE0":"0 BREEZE-M DEB (TANK)","TLE_LINE1":"1 41390U 16017C   16083.16910168 -.00000060  00000-0  00000+0 0  9998","TLE_LINE2":"2 41390  51.5870 320.2035 5903372 102.3570 326.0355  3.82571735   361","OBJECT_ID":"2016-017C","OBJECT_NUMBER":"41390","SEMIMAJOR_AXIS":"17268.710","PERIOD":"376.399","APOGEE":"21084.938","PERIGEE":"696.213"},{"ORDINAL":"5","COMMENT":"GENERATED VIA SPACETRACK.ORG API","ORIGINATOR":"JSPOC","NORAD_CAT_ID":"40943","OBJECT_NAME":"ARIANE 5 DEB (SYLDA)","OBJECT_TYPE":"DEBRIS","CLASSIFICATION_TYPE":"U","INTLDES":"15054D","EPOCH":"2016-03-23 04:14:51","EPOCH_MICROSECONDS":"785664","MEAN_MOTION":"2.39622217","ECCENTRICITY":"0.721047","INCLINATION":"6.1565","RA_OF_ASC_NODE":"70.3196","ARG_OF_PERICENTER":"323.9227","MEAN_ANOMALY":"4.1314","EPHEMERIS_TYPE":"0","ELEMENT_SET_NO":"999","REV_AT_EPOCH":"404","BSTAR":"0.012921","MEAN_MOTION_DOT":"0.00153289","MEAN_MOTION_DDOT":"0","FILE":"2010795","TLE_LINE0":"0 ARIANE 5 DEB (SYLDA)","TLE_LINE1":"1 40943U 15054D   16083.17698826  .00153289  00000-0  12921-1 0  9994","TLE_LINE2":"2 40943   6.1565  70.3196 7210470 323.9227   4.1314  2.39622217  4045","OBJECT_ID":"2015-054D","OBJECT_NUMBER":"40943","SEMIMAJOR_AXIS":"23589.412","PERIOD":"600.945","APOGEE":"34220.352","PERIGEE":"202.202"},{"ORDINAL":"2","COMMENT":"GENERATED VIA SPACETRACK.ORG API","ORIGINATOR":"JSPOC","NORAD_CAT_ID":"41312","OBJECT_NAME":"BREEZE-M DEB (TANK)","OBJECT_TYPE":"DEBRIS","CLASSIFICATION_TYPE":"U","INTLDES":"16005C","EPOCH":"2016-03-23 05:08:57","EPOCH_MICROSECONDS":"856128","MEAN_MOTION":"4.15970914","ECCENTRICITY":"0.5876416","INCLINATION":"49.433","RA_OF_ASC_NODE":"82.8082","ARG_OF_PERICENTER":"20.2245","MEAN_ANOMALY":"355.6915","EPHEMERIS_TYPE":"0","ELEMENT_SET_NO":"999","REV_AT_EPOCH":"221","BSTAR":"0.00080626","MEAN_MOTION_DOT":"1.461e-05","MEAN_MOTION_DDOT":"0","FILE":"2010653","TLE_LINE0":"0 BREEZE-M DEB (TANK)","TLE_LINE1":"1 41312U 16005C   16083.21455852  .00001461  00000-0  80626-3 0  9990","TLE_LINE2":"2 41312  49.4330  82.8082 5876416  20.2245 355.6915  4.15970914  2215","OBJECT_ID":"2016-005C","OBJECT_NUMBER":"41312","SEMIMAJOR_AXIS":"16331.517","PERIOD":"346.178","APOGEE":"19550.461","PERIGEE":"356.303"},{"ORDINAL":"2","COMMENT":"GENERATED VIA SPACETRACK.ORG API","ORIGINATOR":"JSPOC","NORAD_CAT_ID":"41113","OBJECT_NAME":"FREGAT DEB","OBJECT_TYPE":"DEBRIS","CLASSIFICATION_TYPE":"U","INTLDES":"15074J","EPOCH":"2016-03-23 05:44:07","EPOCH_MICROSECONDS":"148832","MEAN_MOTION":"11.48157916","ECCENTRICITY":"0.1983979","INCLINATION":"50.4819","RA_OF_ASC_NODE":"27.9786","ARG_OF_PERICENTER":"219.2291","MEAN_ANOMALY":"124.5222","EPHEMERIS_TYPE":"0","ELEMENT_SET_NO":"999","REV_AT_EPOCH":"1148","BSTAR":"0.0042162","MEAN_MOTION_DOT":"0.00149225","MEAN_MOTION_DDOT":"5.2347e-06","FILE":"2010783","TLE_LINE0":"0 FREGAT DEB","TLE_LINE1":"1 41113U 15074J   16083.23897163  .00149225  52347-5  42162-2 0  9990","TLE_LINE2":"2 41113  50.4819  27.9786 1983979 219.2291 124.5222 11.48157916 11485","OBJECT_ID":"2015-074J","OBJECT_NUMBER":"41113","SEMIMAJOR_AXIS":"8299.796","PERIOD":"125.418","APOGEE":"3568.323","PERIGEE":"274.999"},{"ORDINAL":"3","COMMENT":"GENERATED VIA SPACETRACK.ORG API","ORIGINATOR":"JSPOC","NORAD_CAT_ID":"41031","OBJECT_NAME":"ARIANE 5 DEB (SYLDA)","OBJECT_TYPE":"DEBRIS","CLASSIFICATION_TYPE":"U","INTLDES":"15065D","EPOCH":"2016-03-23 06:04:39","EPOCH_MICROSECONDS":"587808","MEAN_MOTION":"2.32386582","ECCENTRICITY":"0.7250805","INCLINATION":"3.8601","RA_OF_ASC_NODE":"138.9282","ARG_OF_PERICENTER":"292.5699","MEAN_ANOMALY":"9.1534","EPHEMERIS_TYPE":"0","ELEMENT_SET_NO":"999","REV_AT_EPOCH":"304","BSTAR":"0.0053542","MEAN_MOTION_DOT":"0.00023291","MEAN_MOTION_DDOT":"0","FILE":"2010658","TLE_LINE0":"0 ARIANE 5 DEB (SYLDA)","TLE_LINE1":"1 41031U 15065D   16083.25323597  .00023291  00000-0  53542-2 0  9998","TLE_LINE2":"2 41031   3.8601 138.9282 7250805 292.5699   9.1534  2.32386582  3049","OBJECT_ID":"2015-065D","OBJECT_NUMBER":"41031","SEMIMAJOR_AXIS":"24076.562","PERIOD":"619.657","APOGEE":"35155.872","PERIGEE":"240.981"},{"ORDINAL":"2","COMMENT":"GENERATED VIA SPACETRACK.ORG API","ORIGINATOR":"JSPOC","NORAD_CAT_ID":"41031","OBJECT_NAME":"ARIANE 5 DEB (SYLDA)","OBJECT_TYPE":"DEBRIS","CLASSIFICATION_TYPE":"U","INTLDES":"15065D","EPOCH":"2016-03-23 06:04:40","EPOCH_MICROSECONDS":"616832","MEAN_MOTION":"2.32387324","ECCENTRICITY":"0.725164","INCLINATION":"3.8625","RA_OF_ASC_NODE":"138.9292","ARG_OF_PERICENTER":"292.5473","MEAN_ANOMALY":"9.1711","EPHEMERIS_TYPE":"0","ELEMENT_SET_NO":"999","REV_AT_EPOCH":"304","BSTAR":"0.0051954","MEAN_MOTION_DOT":"0.00023611","MEAN_MOTION_DDOT":"0","FILE":"2010788","TLE_LINE0":"0 ARIANE 5 DEB (SYLDA)","TLE_LINE1":"1 41031U 15065D   16083.25324788  .00023611  00000-0  51954-2 0  9992","TLE_LINE2":"2 41031   3.8625 138.9292 7251640 292.5473   9.1711  2.32387324  3046","OBJECT_ID":"2015-065D","OBJECT_NUMBER":"41031","SEMIMAJOR_AXIS":"24076.510","PERIOD":"619.655","APOGEE":"35157.794","PERIGEE":"238.956"}]